FLOCK 4G-3              
1 62639U 25009AG  26068.80174065  .00011494  00000+0  43389-3 0  9993
2 62639  97.4062 151.4068 0001320 293.2042  66.9058 15.27179310 63727
STARLINK-33662          
1 63285U 25053W   26068.48589200  .00034886  00000+0  12707-2 0  9994
2 63285  43.0008 242.8071 0002847 285.1887  74.8650 15.27593272 56166
